NORAD_CAT_ID,OBJECT_NAME,OBJECT_TYPE,EPOCH,MEAN_MOTION,ECCENTRICITY,INCLINATION,RA_OF_ASC_NODE,ARG_OF_PERICENTER,MEAN_ANOMALY,BSTAR,MEAN_MOTION_DOT,MEAN_MOTION_DDOT,TLE_LINE0,TLE_LINE1,TLE_LINE2,SEMIMAJOR_AXIS,PERIOD,APOGEE,PERIGEE,DECAYED
53863.0,STARLINK-4788,PAYLOAD,2023-01-16 18:33:00,15.08820684,0.0001228,53.2199,37.442,75.5721,284.5407,4.3369e-05,4.02e-06,0.0,0 STARLINK-4788,1 53863U 22114AX  23016.77292333  .00000402  00000-0  43369-4 0  9998,2 53863  53.2199  37.4420 0001228  75.5721 284.5407 15.08820684 19277,6917.939,95.439,540.654,538.955,0.0
53863.0,STARLINK-4788,PAYLOAD,2023-01-17 07:16:07,15.08814091,0.0001710999999999,53.2211,35.0642,80.4634,279.6552,-9.513e-05,-1.801e-05,0.0,0 STARLINK-4788,1 53863U 22114AX  23017.30286154 -.00001801  00000-0 -95130-4 0  9991,2 53863  53.2211  35.0642 0001711  80.4634 279.6552 15.08814091 19357,6917.96,95.439,541.008,538.641,0.0
53863.0,STARLINK-4788,PAYLOAD,2023-01-17 18:23:48,15.0883226,0.0001689,53.2217,32.9796,89.9742,270.1444,-0.00010479,-1.955e-05,0.0,0 STARLINK-4788,1 53863U 22114AX  23017.76653448 -.00001955  00000-0 -10479-3 0  9997,2 53863  53.2217  32.9796 0001689  89.9742 270.1444 15.08832260 19968,6917.904,95.438,540.937,538.601,0.0
53863.0,STARLINK-4788,PAYLOAD,2023-01-18 00:45:20,15.08835226,0.0001351,53.2186,31.7919,85.4572,274.6574,-3.9233e-05,-9.12e-06,0.0,0 STARLINK-4788,1 53863U 22114AX  23018.03148985 -.00000912  00000-0 -39233-4 0  9995,2 53863  53.2186  31.7919 0001351  85.4572 274.6574 15.08835226 19468,6917.895,95.438,540.695,538.825,0.0
53863.0,STARLINK-4788,PAYLOAD,2023-01-18 07:06:52,15.08843773,7.809999999999999e-05,53.2197,30.6044,75.7207,284.3871,3.822e-05,3.21e-06,0.0,0 STARLINK-4788,1 53863U 22114AX  23018.29643993  .00000321  00000-0  38220-4 0  9999,2 53863  53.2197  30.6044 0000781  75.7207 284.3871 15.08843773 19509,6917.869000000001,95.437,540.274,539.194,0.0
53863.0,STARLINK-4788,PAYLOAD,2023-01-18 18:14:33,15.08859976,0.0001383,53.219,28.5209,92.8429,267.2721,-1.0204e-05,-4.5e-06,0.0,0 STARLINK-4788,1 53863U 22114AX  23018.76010838 -.00000450  00000-0 -10204-4 0  9994,2 53863  53.2190  28.5209 0001383  92.8429 267.2721 15.08859976 19579,6917.819,95.436,540.641,538.7280000000001,0.0
53863.0,STARLINK-4788,PAYLOAD,2023-01-19 06:57:38,15.08845373,8.85e-05,53.2204,26.1416,101.66,258.4492,0.00035025,5.292e-05,0.0,0 STARLINK-4788,1 53863U 22114AX  23019.29002552  .00005292  00000-0  35025-3 0  9991,2 53863  53.2204  26.1416 0000885 101.6600 258.4492 15.08845373 19657,6917.8640000000005,95.437,540.341,539.117,0.0
53863.0,STARLINK-4788,PAYLOAD,2023-01-19 10:08:24,15.08854441,0.0001453999999999,53.2201,25.5454,105.9108,254.2044,0.00027175,4.041e-05,0.0,0 STARLINK-4788,1 53863U 22114AX  23019.42250181  .00004041  00000-0  27175-3 0  9997,2 53863  53.2201  25.5454 0001454 105.9108 254.2044 15.08854441 20219,6917.835999999999,95.437,540.707,538.695,0.0
53863.0,STARLINK-4788,PAYLOAD,2023-01-20 06:48:27,15.08835328,0.000136,53.2203,21.6835,88.6583,271.4565,-0.00015443,-2.744e-05,0.0,0 STARLINK-4788,1 53863U 22114AX  23020.28365014 -.00002744  00000-0 -15443-3 0  9990,2 53863  53.2203  21.6835 0001360  88.6583 271.4565 15.08835328 19806,6917.895,95.438,540.701,538.819,0.0
53863.0,STARLINK-4788,PAYLOAD,2023-01-21 06:39:12,15.08856236,0.0001058,53.2197,17.2208,80.0948,280.0163,-3.0094e-05,-7.67e-06,0.0,0 STARLINK-4788,1 53863U 22114AX  23021.27723070 -.00000767  00000-0 -30094-4 0  9993,2 53863  53.2197  17.2208 0001058  80.0948 280.0163 15.08856236 19955,6917.831,95.437,540.428,538.964,0.0
53863.0,STARLINK-4788,PAYLOAD,2023-01-21 16:11:32,15.08845055,0.0001374,53.22,15.4363,83.8743,276.2406,-0.00012498,-2.277e-05,0.0,0 STARLINK-4788,1 53863U 22114AX  23021.67467841 -.00002277  00000-0 -12498-3 0  9993,2 53863  53.2200  15.4363 0001374  83.8743 276.2406 15.08845055 20010,6917.865,95.437,540.68,538.779,0.0
53863.0,STARLINK-4788,PAYLOAD,2023-01-22 16:02:20,15.08831096,0.0002065999999999,53.2201,10.9761,71.3165,288.8051,3.0032e-05,1.9e-06,0.0,0 STARLINK-4788,1 53863U 22114AX  23022.66829109  .00000190  00000-0  30032-4 0  9997,2 53863  53.2201  10.9761 0002066  71.3165 288.8051 15.08831096 20163,6917.908,95.438,541.202,538.3430000000001,0.0
53863.0,STARLINK-4788,PAYLOAD,2023-01-22 23:59:16,15.08824877,0.000134,53.2229,9.4937,90.0916,270.023,-0.00014864,-2.652e-05,0.0,0 STARLINK-4788,1 53863U 22114AX  23022.99950160 -.00002652  00000-0 -14864-3 0  9996,2 53863  53.2229   9.4937 0001340  90.0916 270.0230 15.08824877 20214,6917.927,95.439,540.719,538.865,0.0
53863.0,STARLINK-4788,PAYLOAD,2023-01-23 09:31:35,15.08830633,0.0001576999999999,53.2192,7.7065,76.3511,283.7657,-9.1862e-05,-1.749e-05,0.0,0 STARLINK-4788,1 53863U 22114AX  23023.39693925 -.00001749  00000-0 -91862-4 0  9994,2 53863  53.2192   7.7065 0001577  76.3511 283.7657 15.08830633 20273,6917.909000000001,95.438,540.865,538.683,0.0
53863.0,STARLINK-4788,PAYLOAD,2023-01-23 15:53:07,15.08837869,0.0001182,53.2202,6.5167,84.4356,275.6771,-9.738e-05,-1.837e-05,0.0,0 STARLINK-4788,1 53863U 22114AX  23023.66189397 -.00001837  00000-0 -97380-4 0  9996,2 53863  53.2202   6.5167 0001182  84.4356 275.6771 15.08837869 20314,6917.887,95.438,540.57,538.934,0.0
53863.0,STARLINK-4788,PAYLOAD,2023-01-24 06:11:35,15.08849291,0.0001325,53.2205,3.8416,86.9001,273.2143,9.5688e-06,-1.36e-06,0.0,0 STARLINK-4788,1 53863U 22114AX  23024.25804594 -.00000136  00000-0  95688-5 0  9995,2 53863  53.2205   3.8416 0001325  86.9001 273.2143 15.08849291 20406,6917.852,95.437,540.634,538.8,0.0
53863.0,STARLINK-4788,PAYLOAD,2023-01-25 04:27:00,15.08824261,0.0001144,53.2187,359.6777,81.5965,278.5157,0.00013082,1.794e-05,0.0,0 STARLINK-4788,1 53863U 22114AX  23025.18541902  .00001794  00000-0  13082-3 0  9995,2 53863  53.2187 359.6777 0001144  81.5965 278.5157 15.08824261 20544,6917.928000000001,95.439,540.585,539.002,0.0
53863.0,STARLINK-4788,PAYLOAD,2023-01-25 07:37:45,15.0883835,0.0001649,53.2195,359.0812,102.1701,257.9475,9.7498e-05,1.264e-05,0.0,0 STARLINK-4788,1 53863U 22114AX  23025.31789145  .00001264  00000-0  97498-4 0  9999,2 53863  53.2195 359.0812 0001649 102.1701 257.9475 15.08838350 20565,6917.885,95.438,540.891,538.61,0.0
53863.0,STARLINK-4788,PAYLOAD,2023-01-25 15:34:41,15.0884237,0.0001193999999999,53.2197,357.5952,89.5087,270.6042,0.00010505,1.385e-05,0.0,0 STARLINK-4788,1 53863U 22114AX  23025.64908835  .00001385  00000-0  10505-3 0  9991,2 53863  53.2197 357.5952 0001194  89.5087 270.6042 15.08842370 21150,6917.8730000000005,95.437,540.564,538.9119999999999,0.0
53863.0,STARLINK-4788,PAYLOAD,2023-01-26 07:28:31,15.08863089,0.0001286,53.2204,354.6228,92.26,267.8539,5.516e-05,5.91e-06,0.0,0 STARLINK-4788,1 53863U 22114AX  23026.31147722  .00000591  00000-0  55160-4 0  9991,2 53863  53.2204 354.6228 0001286  92.2600 267.8539 15.08863089 20717,6917.81,95.436,540.564,538.785,0.0
53863.0,STARLINK-4788,PAYLOAD,2023-01-27 02:33:10,15.08833155,0.000146,53.2208,351.0551,87.8008,272.3151,1.7797999999999998e-05,-5e-08,0.0,0 STARLINK-4788,1 53863U 22114AX  23027.10637670 -.00000005  00000-0  17798-4 0  9991,2 53863  53.2208 351.0551 0001460  87.8008 272.3151 15.08833155 20832,6917.901,95.438,540.776,538.756,0.0
53863.0,STARLINK-4788,PAYLOAD,2023-01-27 07:19:20,15.08840795,0.0001699,53.22,350.1603,101.4135,258.7049,-1.653e-05,-5.51e-06,0.0,0 STARLINK-4788,1 53863U 22114AX  23027.30509298 -.00000551  00000-0 -16530-4 0  9997,2 53863  53.2200 350.1603 0001699 101.4135 258.7049 15.08840795 21406,6917.878000000001,95.438,540.918,538.568,0.0
53863.0,STARLINK-4788,PAYLOAD,2023-01-28 07:10:06,15.08849743,0.0001337,53.2202,345.7019,88.445,271.6695,-3.7665e-05,-8.87e-06,0.0,0 STARLINK-4788,1 53863U 22114AX  23028.29868823 -.00000887  00000-0 -37665-4 0  9992,2 53863  53.2202 345.7019 0001337  88.4450 271.6695 15.08849743 21551,6917.851,95.437,540.641,538.791,0.0
53863.0,STARLINK-4788,PAYLOAD,2023-01-28 21:28:35,15.08836778,0.000134,53.2179,343.0257,98.8227,261.2917,3.8744e-06,-2.26e-06,0.0,0 STARLINK-4788,1 53863U 22114AX  23028.89485642 -.00000226  00000-0  38744-5 0  9998,2 53863  53.2179 343.0257 0001340  98.8227 261.2917 15.08836778 21107,6917.89,95.438,540.682,538.828,0.0
53863.0,STARLINK-4788,PAYLOAD,2023-01-29 07:00:53,15.08848607,0.0001288,53.2185,341.2422,88.0554,272.0586,7.1037e-05,8.43e-06,0.0,0 STARLINK-4788,1 53863U 22114AX  23029.29228611  .00000843  00000-0  71037-4 0  9999,2 53863  53.2185 341.2422 0001288  88.0554 272.0586 15.08848607 21165,6917.854,95.437,540.61,538.828,0.0
53863.0,STARLINK-4788,PAYLOAD,2023-01-30 05:16:18,15.08837306,0.0001197,53.2201,337.0813,83.2949,276.8179,-3.2329e-05,-8.02e-06,0.0,0 STARLINK-4788,1 53863U 22114AX  23030.21966045 -.00000802  00000-0 -32329-4 0  9991,2 53863  53.2201 337.0813 0001197  83.2949 276.8179 15.08837306 21305,6917.889,95.438,540.582,538.926,0.0
53863.0,STARLINK-4788,PAYLOAD,2023-01-31 05:07:05,15.08832676,0.000118,53.2188,332.6188,90.3316,269.7811,-0.00011317,-2.088e-05,0.0,0 STARLINK-4788,1 53863U 22114AX  23031.21326025 -.00002088  00000-0 -11317-3 0  9991,2 53863  53.2188 332.6188 0001180  90.3316 269.7811 15.08832676 21998,6917.903,95.438,540.584,538.951,0.0
53863.0,STARLINK-4788,PAYLOAD,2023-02-01 04:57:50,15.08859154,0.0001175,53.22,328.1587,85.3647,274.7479,0.00015455,2.174e-05,0.0,0 STARLINK-4788,1 53863U 22114AX  23032.20683759  .00002174  00000-0  15455-3 0  9992,2 53863  53.2200 328.1587 0001175  85.3647 274.7479 15.08859154 21605,6917.822,95.436,540.5,538.874,0.0
53863.0,STARLINK-4788,PAYLOAD,2023-02-02 01:37:53,15.08824407,0.0001465,53.2202,324.2953,76.7437,283.3719,2.924e-05,1.77e-06,0.0,0 STARLINK-4788,1 53863U 22114AX  23033.06798376  .00000177  00000-0  29240-4 0  9998,2 53863  53.2202 324.2953 0001465  76.7437 283.3719 15.08824407 21734,6917.928,95.439,540.807,538.78,0.0
